KAZSTSAT
1 43783U 18099AB  19084.79056983 -.00000097  00000-0 -38094-5 0  9998
2 43783  97.7661 157.7369 0007619 234.4825 125.5684 14.93590163 16719
